{
  "norad_id": 61538,
  "name": "STARLINK-11325 [DTC]",
  "history": [
    {
      "epoch": "2026-03-28T20:56:18.519648",
      "apogee_km": 360.6804791652776,
      "perigee_km": 358.82728965642855,
      "latitude_deg": 16.314712382625157,
      "longitude_deg": 57.553910720162094,
      "semi_major_axis_km": 6737.890884410853,
      "eccentricity": 0.00013752,
      "inclination_deg": 53.1592,
      "raan_deg": 141.4489,
      "arg_perigee_deg": 55.1019,
      "mean_anomaly_deg": 305.0128,
      "mean_motion_rev_day": 15.69700518
    }
  ]
}